{
  "type": "FeatureCollection",
  "features": [
    {
      "type": "Feature",
      "properties": {
        "name": "India EEZ Boundary",
        "source": "Approximate - based on UNCLOS 200nm",
        "disclaimer": "For safety alerts only. Not for legal use."
      },
      "geometry": {
        "type": "LineString",
        "coordinates": [
          [66.5, 23.8],
          [66.2, 23.4],
          [66.0, 23.0],
          [65.7, 22.5],
          [65.5, 22.0],
          [65.5, 21.5],
          [65.5, 21.0],
          [65.7, 20.5],
          [66.0, 20.0],
          [66.2, 19.5],
          [66.5, 19.0],
          [66.7, 18.5],
          [67.0, 18.0],
          [67.2, 17.5],
          [67.5, 17.0],
          [67.7, 16.5],
          [68.0, 16.0],
          [68.2, 15.5],
          [68.5, 15.0],
          [68.7, 14.5],
          [69.0, 14.0],
          [69.0, 13.5],
          [69.0, 13.0],
          [69.0, 12.5],
          [69.0, 12.0],
          [69.0, 11.5],
          [69.0, 11.0],
          [69.2, 10.8],
          [69.5, 10.5],
          [69.3, 10.2],
          [69.0, 10.0],
          [68.8, 9.8],
          [69.0, 9.5],
          [69.5, 9.5],
          [69.7, 9.2],
          [70.0, 9.0],
          [70.2, 8.8],
          [70.5, 8.5],
          [70.7, 8.2],
          [71.0, 8.0],
          [71.5, 7.8],
          [72.0, 7.5],
          [72.5, 7.2],
          [73.0, 7.0],
          [73.5, 6.7],
          [74.0, 6.5],
          [74.5, 6.2],
          [75.0, 6.0],
          [75.5, 5.8],
          [76.0, 5.5],
          [76.5, 5.2],
          [77.0, 5.0],
          [77.2, 4.95],
          [77.4, 4.9],
          [77.6, 4.9],
          [77.8, 4.95],
          [78.0, 5.0],
          [78.5, 5.2],
          [79.0, 5.5],
          [79.5, 5.8],
          [80.0, 6.0],
          [80.2, 6.2],
          [80.5, 6.5],
          [80.7, 6.7],
          [81.0, 7.0],
          [81.2, 7.2],
          [81.5, 7.5],
          [81.7, 7.7],
          [82.0, 8.0],
          [82.2, 8.2],
          [82.5, 8.5],
          [82.7, 8.7],
          [83.0, 9.0],
          [83.0, 9.2],
          [83.0, 9.5],
          [83.0, 9.8],
          [83.0, 10.0],
          [83.2, 10.2],
          [83.5, 10.5],
          [83.7, 10.7],
          [84.0, 11.0],
          [84.2, 11.2],
          [84.5, 11.5],
          [84.7, 11.7],
          [85.0, 12.0],
          [85.2, 12.2],
          [85.5, 12.5],
          [85.7, 12.7],
          [86.0, 13.0],
          [86.2, 13.2],
          [86.5, 13.5],
          [86.7, 13.7],
          [87.0, 14.0],
          [87.2, 14.2],
          [87.5, 14.5],
          [87.7, 14.7],
          [88.0, 15.0],
          [88.0, 15.5],
          [88.0, 16.0],
          [88.2, 16.5],
          [88.5, 17.0],
          [88.5, 17.5],
          [88.5, 18.0],
          [88.7, 18.5],
          [89.0, 19.0],
          [89.0, 19.5],
          [89.0, 20.0],
          [89.08, 20.5],
          [89.17, 21.0]
        ]
      }
    }
  ]
}
